     2              NAVIGATION DATA                         RINEX VERSION / TYPE
CCRINEXN V1.6.0 UX  CDDIS               21-MAR-17 10:30     PGM / RUN BY / DATE 
IGS BROADCAST EPHEMERIS FILE                                COMMENT             
    0.7451D-08 -0.1490D-07 -0.5960D-07  0.1192D-06          ION ALPHA           
    0.9216D+05 -0.1147D+06 -0.1311D+06  0.7209D+06          ION BETA            
    0.931322574615D-09 0.355271367880D-14   233472     1930 DELTA-UTC: A0,A1,T,W
    17                                                      LEAP SECONDS        
                                                            END OF HEADER       
30 17  1  1  7 59 44.0 0.159884802997D-03 0.454747350886D-12 0.000000000000D+00
    0.110000000000D+02 0.241250000000D+02 0.449983029314D-08 0.755611501132D+00
    0.129267573357D-05 0.235891633201D-02 0.107828527689D-04 0.515373602295D+04
    0.287840000000D+05 0.372529029846D-07-0.296790319445D+01 0.707805156708D-07
    0.950109346108D+00 0.165906250000D+03 0.311814358066D+01-0.796497463031D-08
   -0.314298806093D-09 0.100000000000D+01 0.193000000000D+04 0.000000000000D+00
    0.200000000000D+01 0.000000000000D+00 0.372529029846D-08 0.110000000000D+02
    0.216000000000D+05 0.400000000000D+01 0.000000000000D+00 0.000000000000D+00
 1 17  1  1  8  0  0.0 0.454643741250D-04 0.125055521494D-11 0.000000000000D+00
    0.101000000000D+03-0.109281250000D+03 0.429589322691D-08 0.139436829964D+01
   -0.555999577045D-05 0.608461012598D-02 0.932812690735D-05 0.515370234871D+04
    0.288000000000D+05-0.409781932831D-07 0.116490771028D+00 0.782310962677D-07
    0.966564014597D+00 0.203531250000D+03 0.555662020251D+00-0.794211653532D-08
   -0.165721188667D-09 0.100000000000D+01 0.193000000000D+04 0.000000000000D+00
    0.200000000000D+01 0.000000000000D+00 0.512227416039D-08 0.101000000000D+03
    0.244200000000D+05 0.400000000000D+01 0.000000000000D+00 0.000000000000D+00
 2 17  1  1  8  0  0.0 0.501064117998D-03-0.636646291241D-11 0.000000000000D+00
    0.410000000000D+02-0.116843750000D+03 0.460162024738D-08 0.184179655548D+01
   -0.632554292679D-05 0.163949780399D-01 0.958703458309D-05 0.515371407318D+04
    0.288000000000D+05-0.227242708206D-06 0.662696520999D-01-0.366941094399D-06
    0.945431321764D+00 0.190906250000D+03-0.204783425960D+01-0.804497796277D-08
   -0.119647840956D-09 0.100000000000D+01 0.193000000000D+04 0.000000000000D+00
    0.200000000000D+01 0.000000000000D+00-0.200234353542D-07 0.410000000000D+02
    0.263100000000D+05 0.400000000000D+01 0.000000000000D+00 0.000000000000D+00
 3 17  1  1  8  0  0.0-0.104643870145D-03-0.113686837722D-11 0.000000000000D+00
    0.560000000000D+02 0.959375000000D+01 0.460733477113D-08 0.576786481244D-01
    0.478699803352D-06 0.400454737246D-03 0.920146703720D-05 0.515354771805D+04
    0.288000000000D+05 0.279396772385D-07 0.115820083069D+01-0.558793544769D-08
    0.959260268812D+00 0.200156250000D+03 0.847597981790D+00-0.794140221985D-08
    0.434303804782D-09 0.100000000000D+01 0.193000000000D+04 0.000000000000D+00
    0.200000000000D+01 0.000000000000D+00 0.186264514923D-08 0.560000000000D+02
    0.224700000000D+05 0.400000000000D+01 0.000000000000D+00 0.000000000000D+00
 4 17  1  1  8  0  0.0-0.136066228151D-05-0.119371179608D-10 0.000000000000D+00
    0.139000000000D+03-0.117906250000D+03 0.480377152494D-08 0.113330795855D+01
   -0.614672899246D-05 0.131960443687D-01 0.927411019802D-05 0.515370160103D+04
    0.288000000000D+05-0.236555933952D-06 0.808136032852D-01-0.260770320892D-07
    0.944613933842D+00 0.196312500000D+03 0.120736002323D+01-0.833820446254D-08
   -0.186079179516D-09 0.100000000000D+01 0.193000000000D+04 0.000000000000D+00
    0.200000000000D+01 0.630000000000D+02-0.651925802231D-08 0.139000000000D+03
    0.216000000000D+05 0.400000000000D+01 0.000000000000D+00 0.000000000000D+00
 5 17  1  1  8  0  0.0-0.687814317644D-04 0.216004991671D-11 0.000000000000D+00
    0.510000000000D+02 0.251562500000D+02 0.484413043012D-08-0.195220991569D+01
    0.124424695969D-05 0.489867886063D-02 0.913627445698D-05 0.515365769768D+04
    0.288000000000D+05-0.335276126862D-07 0.114334544911D+01-0.577419996262D-07
    0.946272016896D+00 0.196406250000D+03 0.565322453915D+00-0.803997757259D-08
    0.497877905570D-09 0.100000000000D+01 0.193000000000D+04 0.000000000000D+00
    0.200000000000D+01 0.000000000000D+00-0.107102096081D-07 0.510000000000D+02
    0.216000000000D+05 0.000000000000D+00 0.000000000000D+00 0.000000000000D+00
 6 17  1  1  8  0  0.0 0.293481163681D-03 0.500222085975D-11 0.000000000000D+00
    0.430000000000D+02-0.102687500000D+03 0.415660171057D-08 0.181653560730D+01
   -0.540725886822D-05 0.472785788588D-03 0.945292413235D-05 0.515360011864D+04
    0.288000000000D+05-0.372529029846D-07 0.108106255014D+00 0.745058059692D-08
    0.966362638071D+00 0.198812500000D+03-0.148319167200D+01-0.784282668521D-08
   -0.139291516337D-09 0.100000000000D+01 0.193000000000D+04 0.000000000000D+00
    0.200000000000D+01 0.000000000000D+00 0.419095158577D-08 0.430000000000D+02
    0.231900000000D+05 0.400000000000D+01 0.000000000000D+00 0.000000000000D+00
 8 17  1  1  8  0  0.0-0.444417819381D-04-0.136424205266D-11 0.000000000000D+00
    0.870000000000D+02-0.274062500000D+02 0.481484341470D-08-0.202834294184D+01
   -0.130385160446D-05 0.231164495926D-02 0.162981450558D-05 0.515356281853D+04
    0.288000000000D+05-0.577419996262D-07-0.945340116136D+00 0.838190317154D-07
    0.965366943842D+00 0.351781250000D+03-0.948031771294D+00-0.842713673836D-08
   -0.339299847486D-10 0.100000000000D+01 0.193000000000D+04 0.000000000000D+00
    0.200000000000D+01 0.000000000000D+00 0.512227416039D-08 0.870000000000D+02
    0.216000000000D+05 0.400000000000D+01 0.000000000000D+00 0.000000000000D+00
 9 17  1  1  8  0  0.0 0.274868216366D-03 0.738964445190D-11 0.000000000000D+00
    0.150000000000D+02-0.400000000000D+01 0.503056668615D-08-0.252848076951D+01
   -0.193715095520D-06 0.867295893841D-03 0.514276325703D-05 0.515370902061D+04
    0.288000000000D+05 0.931322574616D-08 0.219607074355D+01 0.745058059692D-08
    0.953767094811D+00 0.278031250000D+03 0.173025163106D+01-0.826713007344D-08
   -0.169649923743D-09 0.100000000000D+01 0.193000000000D+04 0.000000000000D+00
    0.200000000000D+01 0.000000000000D+00 0.139698386192D-08 0.150000000000D+02
    0.216180000000D+05 0.400000000000D+01 0.000000000000D+00 0.000000000000D+00
10 17  1  1  8  0  0.0-0.115047674626D-03 0.113686837722D-11 0.000000000000D+00
    0.490000000000D+02 0.131562500000D+02 0.452947438508D-08-0.640505386455D+00
    0.549480319023D-06 0.206778140273D-02 0.971928238869D-05 0.515367428589D+04
    0.288000000000D+05 0.109896063805D-06 0.115438453238D+01 0.149011611938D-07
    0.959459941038D+00 0.193000000000D+03-0.294239950867D+01-0.791854412486D-08
    0.418946022212D-09 0.100000000000D+01 0.193000000000D+04 0.000000000000D+00
    0.200000000000D+01 0.000000000000D+00 0.232830643654D-08 0.490000000000D+02
    0.216000000000D+05 0.400000000000D+01 0.000000000000D+00 0.000000000000D+00
11 17  1  1  8  0  0.0-0.668814405799D-03 0.170530256582D-11 0.000000000000D+00
    0.920000000000D+02-0.118906250000D+03 0.616347101902D-08 0.816172704984D+00
   -0.635534524918D-05 0.166640812531D-01 0.565499067307D-05 0.515369411659D+04
    0.288000000000D+05-0.208616256714D-06-0.275646844175D+00-0.160187482834D-06
    0.899498969548D+00 0.243281250000D+03 0.160990833110D+01-0.917145345642D-08
   -0.263582407837D-09 0.100000000000D+01 0.193000000000D+04 0.000000000000D+00
    0.290000000000D+01 0.000000000000D+00-0.121071934700D-07 0.920000000000D+02
    0.219900000000D+05 0.400000000000D+01 0.000000000000D+00 0.000000000000D+00
13 17  1  1  8  0  0.0-0.628717243671D-04-0.193267624127D-11 0.000000000000D+00
    0.680000000000D+02-0.116250000000D+02 0.455768984608D-08 0.180772849083D+01
   -0.609084963798D-06 0.407972699031D-02 0.574253499508D-05 0.515368070793D+04
    0.288000000000D+05 0.894069671631D-07 0.232009218236D+01-0.149011611938D-07
    0.970064451330D+00 0.273687500000D+03 0.186040092942D+01-0.801640534403D-08
   -0.286440502825D-09 0.100000000000D+01 0.193000000000D+04 0.000000000000D+00
    0.200000000000D+01 0.000000000000D+00-0.111758708954D-07 0.680000000000D+02
    0.216000000000D+05 0.400000000000D+01 0.000000000000D+00 0.000000000000D+00
14 17  1  1  8  0  0.0-0.521256588399D-04-0.170530256582D-11 0.000000000000D+00
    0.220000000000D+02-0.806250000000D+01 0.468769526132D-08 0.313882795347D+01
   -0.379979610443D-06 0.862893485464D-02 0.558979809284D-05 0.515360374832D+04
    0.288000000000D+05 0.465661287308D-07 0.228162079428D+01-0.484287738800D-07
    0.962538761854D+00 0.271156250000D+03-0.195150011661D+01-0.791568686299D-08
   -0.202151277555D-09 0.100000000000D+01 0.193000000000D+04 0.000000000000D+00
    0.200000000000D+01 0.000000000000D+00-0.931322574616D-08 0.220000000000D+02
    0.216000000000D+05 0.400000000000D+01 0.000000000000D+00 0.000000000000D+00
15 17  1  1  8  0  0.0-0.339183490723D-03-0.113686837722D-11 0.000000000000D+00
    0.490000000000D+02-0.512500000000D+01 0.557808949267D-08 0.273114216843D+01
   -0.327825546265D-06 0.899046170525D-02 0.491365790367D-05 0.515371615791D+04
    0.288000000000D+05-0.540167093277D-07 0.213809724136D+01-0.102445483208D-06
    0.929384807419D+00 0.269843750000D+03 0.557214429418D+00-0.846678124685D-08
   -0.143577409147D-09 0.100000000000D+01 0.193000000000D+04 0.000000000000D+00
    0.200000000000D+01 0.000000000000D+00-0.107102096081D-07 0.490000000000D+02
    0.216000000000D+05 0.400000000000D+01 0.000000000000D+00 0.000000000000D+00
